[{"OBJECT_NAME":"STARLINK-32445","OBJECT_ID":"2024-184Q","EPOCH":"2026-03-09T03:59:04.055424","MEAN_MOTION":15.30185321,"ECCENTRICITY":0.00010882,"INCLINATION":53.1627,"RA_OF_ASC_NODE":16.5992,"ARG_OF_PERICENTER":111.4669,"MEAN_ANOMALY":248.6448,"EPHEMERIS_TYPE":0,"CLASSIFICATION_TYPE":"U","NORAD_CAT_ID":61546,"ELEMENT_SET_NO":999,"REV_AT_EPOCH":7842,"BSTAR":-1.8019312e-5,"MEAN_MOTION_DOT":-8.92e-6,"MEAN_MOTION_DDOT":0},{"OBJECT_NAME":"ATLAS 28E DEB","OBJECT_ID":"1990-031H","EPOCH":"2026-03-09T12:57:08.289792","MEAN_MOTION":15.28884159,"ECCENTRICITY":0.00278203,"INCLINATION":89.4108,"RA_OF_ASC_NODE":276.7439,"ARG_OF_PERICENTER":214.1843,"MEAN_ANOMALY":145.7617,"EPHEMERIS_TYPE":0,"CLASSIFICATION_TYPE":"U","NORAD_CAT_ID":20576,"ELEMENT_SET_NO":999,"REV_AT_EPOCH":37205,"BSTAR":0.00056600809,"MEAN_MOTION_DOT":0.00016095,"MEAN_MOTION_DDOT":0}]
